NORAD_CAT_ID,OBJECT_NAME,OBJECT_TYPE,EPOCH,MEAN_MOTION,ECCENTRICITY,INCLINATION,RA_OF_ASC_NODE,ARG_OF_PERICENTER,MEAN_ANOMALY,BSTAR,MEAN_MOTION_DOT,MEAN_MOTION_DDOT,TLE_LINE0,TLE_LINE1,TLE_LINE2,SEMIMAJOR_AXIS,PERIOD,APOGEE,PERIGEE,DECAYED
54094.0,STARLINK-5219,PAYLOAD,2023-08-10 12:55:19,15.08848192,0.0001108,53.2153,243.4324,81.5699,278.5418,6.5281e-05,7.52e-06,0.0,0 STARLINK-5219,1 54094U 22136AV  23222.53842104  .00000752  00000-0  65281-4 0  9994,2 54094  53.2153 243.4324 0001108  81.5699 278.5418 15.08848192 45227,6917.855,95.437,540.487,538.954,0.0
54094.0,STARLINK-5219,PAYLOAD,2023-08-11 01:38:25,15.08833837,0.0001165,53.2157,241.0533,82.0281,278.0843,5.7169e-05,6.22e-06,0.0,0 STARLINK-5219,1 54094U 22136AV  23223.06835091  .00000622  00000-0  57169-4 0  9992,2 54094  53.2157 241.0533 0001165  82.0281 278.0843 15.08833837 45309,6917.899,95.438,540.57,538.958,0.0
54094.0,STARLINK-5219,PAYLOAD,2023-08-12 09:26:07,15.08843613,0.000112,53.2161,235.1067,81.7004,278.4115,6.0193e-05,6.7e-06,0.0,0 STARLINK-5219,1 54094U 22136AV  23224.39314636  .00000670  00000-0  60193-4 0  9990,2 54094  53.2161 235.1067 0001120  81.7004 278.4115 15.08843613 45501,6917.869,95.437,540.509,538.96,0.0
54094.0,STARLINK-5219,PAYLOAD,2023-08-12 23:44:36,15.08837365,0.0001188,53.2159,232.4301,84.7645,275.3483,7.5894e-05,9.2e-06,0.0,0 STARLINK-5219,1 54094U 22136AV  23224.98931009  .00000920  00000-0  75894-4 0  9996,2 54094  53.2159 232.4301 0001188  84.7645 275.3483 15.08837365 45597,6917.888,95.438,540.575,538.932,0.0
54094.0,STARLINK-5219,PAYLOAD,2023-08-14 02:46:10,15.08836639,0.0001212,53.2161,227.3746,91.5283,268.5848,2.408e-05,9.5e-07,0.0,0 STARLINK-5219,1 54094U 22136AV  23226.11539377  .00000095  00000-0  24080-4 0  9999,2 54094  53.2161 227.3746 0001212  91.5283 268.5848 15.08836639 45769,6917.891,95.438,540.594,538.917,0.0
54094.0,STARLINK-5219,PAYLOAD,2023-08-15 08:58:29,15.08845146,0.0001251,53.2161,221.7249,87.3027,272.8108,0.00010393,1.367e-05,0.0,0 STARLINK-5219,1 54094U 22136AV  23227.37394722  .00001367  00000-0  10393-3 0  9995,2 54094  53.2161 221.7249 0001251  87.3027 272.8108 15.08845146 45958,6917.865,95.437,540.595,538.864,0.0
54094.0,STARLINK-5219,PAYLOAD,2023-08-15 16:55:25,15.08839325,0.0001253,53.2162,220.2383,86.8554,273.2582,8.3414e-05,1.04e-05,0.0,0 STARLINK-5219,1 54094U 22136AV  23227.70515124  .00001040  00000-0  83414-4 0  9996,2 54094  53.2162 220.2383 0001253  86.8554 273.2582 15.08839325 46003,6917.882,95.438,540.614,538.881,0.0
54094.0,STARLINK-5219,PAYLOAD,2023-08-17 10:15:25,15.08851139,0.0001263,53.2163,212.5064,92.1351,267.9786,9.7257e-05,1.261e-05,0.0,0 STARLINK-5219,1 54094U 22136AV  23229.42738271  .00001261  00000-0  97257-4 0  9992,2 54094  53.2163 212.5064 0001263  92.1351 267.9786 15.08851139 46261,6917.846,95.437,540.585,538.838,0.0
54094.0,STARLINK-5219,PAYLOAD,2023-08-17 16:36:59,15.08838417,0.000127,53.2163,211.3169,96.8313,263.2824,4.8222e-06,-2.11e-06,0.0,0 STARLINK-5219,1 54094U 22136AV  23229.69235269 -.00000211  00000-0  48222-5 0  9994,2 54094  53.2163 211.3169 0001270  96.8313 263.2824 15.08838417 46302,6917.885,95.438,540.629,538.872,0.0
54094.0,STARLINK-5219,PAYLOAD,2023-08-19 03:35:28,15.08836511,0.0001539,53.2175,204.7734,106.8761,253.24,1.2961e-05,-8.2e-07,0.0,0 STARLINK-5219,1 54094U 22136AV  23231.14963733 -.00000082  00000-0  12961-4 0  9997,2 54094  53.2175 204.7734 0001539 106.8761 253.2400 15.08836511 46522,6917.891,95.438,540.821,538.691,0.0
54094.0,STARLINK-5219,PAYLOAD,2023-08-19 09:57:00,15.08842472,0.0001493,53.2174,203.5839,107.613,252.5025,2.1688e-05,5.7e-07,0.0,0 STARLINK-5219,1 54094U 22136AV  23231.41459312  .00000057  00000-0  21688-4 0  9997,2 54094  53.2174 203.5839 0001493 107.6130 252.5025 15.08842472 46564,6917.873,95.437,540.771,538.705,0.0
54094.0,STARLINK-5219,PAYLOAD,2023-08-21 04:52:26,15.08840244,0.0001537,53.2173,195.5587,115.9005,244.2146,3.7809e-05,3.14e-06,0.0,0 STARLINK-5219,1 54094U 22136AV  23233.20307876  .00000314  00000-0  37809-4 0  9991,2 54094  53.2173 195.5587 0001537 115.9005 244.2146 15.08840244 46832,6917.88,95.438,540.808,538.681,0.0
54094.0,STARLINK-5219,PAYLOAD,2023-08-22 06:18:35,15.08849269,0.0001274,53.217,190.7996,93.2636,266.8502,6.6562e-05,7.72e-06,0.0,0 STARLINK-5219,1 54094U 22136AV  23234.26291338  .00000772  00000-0  66562-4 0  9999,2 54094  53.2170 190.7996 0001274  93.2636 266.8502 15.08849269 46995,6917.852,95.437,540.598,538.836,0.0
54094.0,STARLINK-5219,PAYLOAD,2023-08-23 01:23:13,15.08839638,0.0001414,53.2173,187.2295,94.3884,265.727,4.4856e-05,4.26e-06,0.0,0 STARLINK-5219,1 54094U 22136AV  23235.05780085  .00000426  00000-0  44856-4 0  9997,2 54094  53.2173 187.2295 0001414  94.3884 265.7270 15.08839638 47118,6917.881,95.438,540.725,538.768,0.0
54094.0,STARLINK-5219,PAYLOAD,2023-08-24 20:18:38,15.08846684,0.0001616,53.218,179.2009,88.9771,271.1406,9.3273e-05,1.197e-05,0.0,0 STARLINK-5219,1 54094U 22136AV  23236.84627808  .00001197  00000-0  93273-4 0  9991,2 54094  53.2180 179.2009 0001616  88.9771 271.1406 15.08846684 46916,6917.86,95.437,540.843,538.607,0.0
54094.0,STARLINK-5219,PAYLOAD,2023-08-25 02:40:10,15.08861565,0.0001517,53.2176,178.0133,98.1571,261.9593,1.3202e-05,-7.8e-07,0.0,0 STARLINK-5219,1 54094U 22136AV  23237.11122977 -.00000078  00000-0  13202-4 0  9991,2 54094  53.2176 178.0133 0001517  98.1571 261.9593 15.08861565 47423,6917.814,95.436,540.729,538.63,0.0
54094.0,STARLINK-5219,PAYLOAD,2023-08-26 00:55:35,15.0884236,0.0001339,53.2169,173.849,109.3454,250.7683,4.882e-05,4.89e-06,0.0,0 STARLINK-5219,1 54094U 22136AV  23238.03859972  .00000489  00000-0  48820-4 0  9994,2 54094  53.2169 173.8490 0001339 109.3454 250.7683 15.08842360 47564,6917.873,95.437,540.664,538.812,0.0
54094.0,STARLINK-5219,PAYLOAD,2023-08-26 05:41:44,15.0884286,0.0001179,53.2166,172.9567,104.7046,255.4077,5.5635e-05,5.98e-06,0.0,0 STARLINK-5219,1 54094U 22136AV  23238.23731914  .00000598  00000-0  55635-4 0  9994,2 54094  53.2166 172.9567 0001179 104.7046 255.4077 15.08842860 47120,6917.872,95.437,540.552,538.921,0.0
54094.0,STARLINK-5219,PAYLOAD,2023-08-27 02:21:45,15.08841181,0.00015,53.2173,169.093,99.8284,260.2877,7.5435e-06,-1.68e-06,0.0,0 STARLINK-5219,1 54094U 22136AV  23239.09844234 -.00000168  00000-0  75435-5 0  9994,2 54094  53.2173 169.0930 0001500  99.8284 260.2877 15.08841181 47728,6917.877,95.437,540.779,538.704,0.0
54094.0,STARLINK-5219,PAYLOAD,2023-08-27 05:32:31,15.08846625,0.0001365,53.2176,168.4976,95.47,264.6448,1.5737e-05,-3.7e-07,0.0,0 STARLINK-5219,1 54094U 22136AV  23239.23091797 -.00000037  00000-0  15737-4 0  9991,2 54094  53.2176 168.4976 0001365  95.4700 264.6448 15.08846625 47278,6917.86,95.437,540.669,538.781,0.0
54094.0,STARLINK-5219,PAYLOAD,2023-08-27 18:15:37,15.08833465,0.0001132,53.2177,166.1193,95.986,264.1262,8.8724e-06,-1.47e-06,0.0,0 STARLINK-5219,1 54094U 22136AV  23239.76084860 -.00000147  00000-0  88724-5 0  9991,2 54094  53.2177 166.1193 0001132  95.9860 264.1262 15.08833465 47827,6917.9,95.438,540.548,538.982,0.0
54094.0,STARLINK-5219,PAYLOAD,2023-08-28 03:47:55,15.08844145,0.0001149,53.2175,164.3355,97.896,262.2162,9.153e-05,1.169e-05,0.0,0 STARLINK-5219,1 54094U 22136AV  23240.15827984  .00001169  00000-0  91530-4 0  9990,2 54094  53.2175 164.3355 0001149  97.8960 262.2162 15.08844145 47886,6917.868,95.437,540.528,538.938,0.0
54094.0,STARLINK-5219,PAYLOAD,2023-08-28 11:44:51,15.08834535,0.0001083,53.217,162.8476,95.9792,264.1324,-1.3009e-05,-4.95e-06,0.0,0 STARLINK-5219,1 54094U 22136AV  23240.48948810 -.00000495  00000-0 -13009-4 0  9996,2 54094  53.2170 162.8476 0001083  95.9792 264.1324 15.08834535 47936,6917.897,95.438,540.511,539.013,0.0
54094.0,STARLINK-5219,PAYLOAD,2023-08-29 11:35:39,15.0883778,0.000142,53.218,158.3877,89.3401,270.7754,1.3636e-05,-7.1e-07,0.0,0 STARLINK-5219,1 54094U 22136AV  23241.48309101 -.00000071  00000-0  13636-4 0  9996,2 54094  53.2180 158.3877 0001420  89.3401 270.7754 15.08837780 47611,6917.887,95.438,540.735,538.77,0.0
54094.0,STARLINK-5219,PAYLOAD,2023-08-30 00:18:44,15.08835989,0.000138,53.2184,156.0086,90.9898,269.1253,-3.2926e-06,-3.4e-06,0.0,0 STARLINK-5219,1 54094U 22136AV  23242.01301521 -.00000340  00000-0 -32926-5 0  9998,2 54094  53.2184 156.0086 0001380  90.9898 269.1253 15.08835989 48161,6917.893,95.438,540.712,538.803,0.0
54094.0,STARLINK-5219,PAYLOAD,2023-08-30 11:26:26,15.08840096,0.0001391,53.218,153.9258,91.353,268.7622,-2.6485e-06,-3.3e-06,0.0,0 STARLINK-5219,1 54094U 22136AV  23242.47669312 -.00000330  00000-0 -26485-5 0  9995,2 54094  53.2180 153.9258 0001391  91.3530 268.7622 15.08840096 47769,6917.88,95.438,540.707,538.783,0.0
54094.0,STARLINK-5219,PAYLOAD,2023-08-31 00:09:31,15.08839965,0.0001212,53.2168,151.5485,97.2082,262.9048,0.00012403,1.687e-05,0.0,0 STARLINK-5219,1 54094U 22136AV  23243.00661065  .00001687  00000-0  12403-3 0  9999,2 54094  53.2168 151.5485 0001212  97.2082 262.9048 15.08839965 48313,6917.88,95.438,540.584,538.907,0.0
54094.0,STARLINK-5219,PAYLOAD,2023-09-01 11:08:00,15.08844271,0.0001524,53.2179,145.0058,84.8238,275.2928,5.8849e-05,6.49e-06,0.0,0 STARLINK-5219,1 54094U 22136AV  23244.46389018  .00000649  00000-0  58849-4 0  9997,2 54094  53.2179 145.0058 0001524  84.8238 275.2928 15.08844271 48534,6917.867,95.437,540.787,538.678,0.0
54094.0,STARLINK-5219,PAYLOAD,2023-09-01 17:29:32,15.08842729,0.0001152,53.2162,143.8173,92.2617,267.8507,7.9437e-05,9.77e-06,0.0,0 STARLINK-5219,1 54094U 22136AV  23244.72884962  .00000977  00000-0  79437-4 0  9994,2 54094  53.2162 143.8173 0001152  92.2617 267.8507 15.08842729 48100,6917.872,95.437,540.534,538.94,0.0
54094.0,STARLINK-5219,PAYLOAD,2023-09-02 03:01:50,15.08851877,0.0001506,53.2174,142.0324,100.5495,259.5667,0.00013962,1.935e-05,0.0,0 STARLINK-5219,1 54094U 22136AV  23245.12628139  .00001935  00000-0  13962-3 0  9996,2 54094  53.2174 142.0324 0001506 100.5495 259.5667 15.08851877 48639,6917.844,95.437,540.751,538.667,0.0
